STARLINK-3060           
1 49155U 21082AB  25231.54761881  .00000778  00000+0  72941-4 0  9998
2 49155  70.0001  44.1192 0002897 264.9769  95.1060 14.98334522217769
STARLINK-3085           
1 49156U 21082AC  25231.52670443  .00006146  00000+0  52176-3 0  9992
2 49156  70.0003  44.1744 0002065 268.7032  91.3891 14.98379700217764
STARLINK-3051           
1 49157U 21082AD  25230.90492632  .00000712  00000+0  67324-4 0  9991
2 49157  69.9996  65.7391 0002642 267.3912  92.6945 14.98408479217190
STARLINK-3083           
1 49158U 21082AE  25231.54114335  .00036875  00000+0  90683-3 0  9996
2 49158  69.9810   7.4342 0003426 169.0200 191.1056 15.40453226218696
STARLINK-3056           
1 49159U 21082AF  25230.87214414  .00000756  00000+0  71169-4 0  9999
2 49159  69.9998  85.8336 0002228 266.3772  93.7132 14.98327774216691
STARLINK-3095           
1 49160U 21082AG  25230.92637450 -.00002837  00000+0 -23006-3 0  9996
2 49160  69.9995  85.6787 0003397 269.6392  90.4378 14.98334249216679
STARLINK-3080           
1 49161U 21082AH  25230.93055746  .00000407  00000+0  41919-4 0  9993
2 49161  69.9996  85.6653 0002846 265.1828  94.9006 14.98329235216683
STARLINK-3088           
1 49163U 21082AK  25230.92154925  .00000289  00000+0  32650-4 0  9993
2 49163  69.9993  65.8499 0002628 261.2312  98.8549 14.97524635217252
STARLINK-3106           
1 49164U 21082AL  25231.25003472 -.00015121  00000+0 -12624-2 0  9991
2 49164  69.9999  64.8727 0002486 273.2279 235.7842 14.98325738217318
STARLINK-3052           
1 49165U 21082AM  25230.92220766  .00000053  00000+0  12209-4 0  9999
2 49165  69.9993  85.7209 0002979 269.6307  90.4510 14.98328697216806
STARLINK-3089           
1 49166U 21082AN  25230.91737545  .00000612  00000+0  60230-4 0  9995
2 49166  69.9995  65.8646 0002977 269.6273  90.4544 14.97523821217299
STARLINK-3054           
1 49167U 21082AP  25230.91386033 -.00000292  00000+0 -16689-4 0  9993
2 49167  69.9994  85.7209 0002853 269.4308  90.6524 14.98333034216807
STARLINK-3046           
1 49169U 21082AR  25231.55201863 -.00001985  00000+0 -15863-3 0  9995
2 49169  69.9995  64.1271 0002675 275.1702  84.9152 14.98328040217405
STARLINK-3107           
1 49171U 21082AT  25231.01852667  .00011927  00000+0  93869-3 0  9990
2 49171  69.9989  84.9124 0004198 200.3781 159.7212 15.00983954216791
STARLINK-3045           
1 49173U 21082AV  25230.87192772 -.00002454  00000+0 -19818-3 0  9998
2 49173  70.0000  65.8249 0001697 260.7946  99.3021 14.98297858216097
STARLINK-3047           
1 49174U 21082AW  25231.25003472  .00244744  00000+0  29339-2 0  9996
2 49174  69.9840  11.4986 0005167 209.0486  57.2818 15.59954337218632
STARLINK-3087           
1 49175U 21082AX  25231.54849145  .00000236  00000+0  28094-4 0  9999
2 49175  69.9994  64.4070 0002849 274.2071  85.8762 14.97523613216186
