[{"OBJECT_NAME":"STARLINK-3060","OBJECT_ID":"2021-082AB","EPOCH":"2025-08-19T13:08:34.265184","MEAN_MOTION":14.98334522,"ECCENTRICITY":0.0002897,"INCLINATION":70.0001,"RA_OF_ASC_NODE":44.1192,"ARG_OF_PERICENTER":264.9769,"MEAN_ANOMALY":95.106,"EPHEMERIS_TYPE":0,"CLASSIFICATION_TYPE":"U","NORAD_CAT_ID":49155,"ELEMENT_SET_NO":999,"REV_AT_EPOCH":21776,"BSTAR":7.2941e-5,"MEAN_MOTION_DOT":7.78e-6,"MEAN_MOTION_DDOT":0},{"OBJECT_NAME":"STARLINK-3085","OBJECT_ID":"2021-082AC","EPOCH":"2025-08-19T12:38:27.262752","MEAN_MOTION":14.983797,"ECCENTRICITY":0.0002065,"INCLINATION":70.0003,"RA_OF_ASC_NODE":44.1744,"ARG_OF_PERICENTER":268.7032,"MEAN_ANOMALY":91.3891,"EPHEMERIS_TYPE":0,"CLASSIFICATION_TYPE":"U","NORAD_CAT_ID":49156,"ELEMENT_SET_NO":999,"REV_AT_EPOCH":21776,"BSTAR":0.00052176,"MEAN_MOTION_DOT":6.146e-5,"MEAN_MOTION_DDOT":0},{"OBJECT_NAME":"STARLINK-3051","OBJECT_ID":"2021-082AD","EPOCH":"2025-08-18T21:43:05.634048","MEAN_MOTION":14.98408479,"ECCENTRICITY":0.0002642,"INCLINATION":69.9996,"RA_OF_ASC_NODE":65.7391,"ARG_OF_PERICENTER":267.3912,"MEAN_ANOMALY":92.6945,"EPHEMERIS_TYPE":0,"CLASSIFICATION_TYPE":"U","NORAD_CAT_ID":49157,"ELEMENT_SET_NO":999,"REV_AT_EPOCH":21719,"BSTAR":6.7324e-5,"MEAN_MOTION_DOT":7.12e-6,"MEAN_MOTION_DDOT":0},{"OBJECT_NAME":"STARLINK-3083","OBJECT_ID":"2021-082AE","EPOCH":"2025-08-19T12:59:14.785440","MEAN_MOTION":15.40453226,"ECCENTRICITY":0.0003426,"INCLINATION":69.981,"RA_OF_ASC_NODE":7.4342,"ARG_OF_PERICENTER":169.02,"MEAN_ANOMALY":191.1056,"EPHEMERIS_TYPE":0,"CLASSIFICATION_TYPE":"U","NORAD_CAT_ID":49158,"ELEMENT_SET_NO":999,"REV_AT_EPOCH":21869,"BSTAR":0.00090683,"MEAN_MOTION_DOT":0.00036875,"MEAN_MOTION_DDOT":0},{"OBJECT_NAME":"STARLINK-3056","OBJECT_ID":"2021-082AF","EPOCH":"2025-08-18T20:55:53.253696","MEAN_MOTION":14.98327774,"ECCENTRICITY":0.0002228,"INCLINATION":69.9998,"RA_OF_ASC_NODE":85.8336,"ARG_OF_PERICENTER":266.3772,"MEAN_ANOMALY":93.7132,"EPHEMERIS_TYPE":0,"CLASSIFICATION_TYPE":"U","NORAD_CAT_ID":49159,"ELEMENT_SET_NO":999,"REV_AT_EPOCH":21669,"BSTAR":7.1169e-5,"MEAN_MOTION_DOT":7.56e-6,"MEAN_MOTION_DDOT":0},{"OBJECT_NAME":"STARLINK-3095","OBJECT_ID":"2021-082AG","EPOCH":"2025-08-18T22:13:58.756800","MEAN_MOTION":14.98334249,"ECCENTRICITY":0.0003397,"INCLINATION":69.9995,"RA_OF_ASC_NODE":85.6787,"ARG_OF_PERICENTER":269.6392,"MEAN_ANOMALY":90.4378,"EPHEMERIS_TYPE":0,"CLASSIFICATION_TYPE":"U","NORAD_CAT_ID":49160,"ELEMENT_SET_NO":999,"REV_AT_EPOCH":21667,"BSTAR":-0.00023006,"MEAN_MOTION_DOT":-2.837e-5,"MEAN_MOTION_DDOT":0},{"OBJECT_NAME":"STARLINK-3080","OBJECT_ID":"2021-082AH","EPOCH":"2025-08-18T22:20:00.164544","MEAN_MOTION":14.98329235,"ECCENTRICITY":0.0002846,"INCLINATION":69.9996,"RA_OF_ASC_NODE":85.6653,"ARG_OF_PERICENTER":265.1828,"MEAN_ANOMALY":94.9006,"EPHEMERIS_TYPE":0,"CLASSIFICATION_TYPE":"U","NORAD_CAT_ID":49161,"ELEMENT_SET_NO":999,"REV_AT_EPOCH":21668,"BSTAR":4.1919e-5,"MEAN_MOTION_DOT":4.07e-6,"MEAN_MOTION_DDOT":0},{"OBJECT_NAME":"STARLINK-3088","OBJECT_ID":"2021-082AK","EPOCH":"2025-08-18T22:07:01.855200","MEAN_MOTION":14.97524635,"ECCENTRICITY":0.0002628,"INCLINATION":69.9993,"RA_OF_ASC_NODE":65.8499,"ARG_OF_PERICENTER":261.2312,"MEAN_ANOMALY":98.8549,"EPHEMERIS_TYPE":0,"CLASSIFICATION_TYPE":"U","NORAD_CAT_ID":49163,"ELEMENT_SET_NO":999,"REV_AT_EPOCH":21725,"BSTAR":3.265e-5,"MEAN_MOTION_DOT":2.89e-6,"MEAN_MOTION_DDOT":0},{"OBJECT_NAME":"STARLINK-3106","OBJECT_ID":"2021-082AL","EPOCH":"2025-08-19T06:00:02.999808","MEAN_MOTION":14.98325738,"ECCENTRICITY":0.0002486,"INCLINATION":69.9999,"RA_OF_ASC_NODE":64.8727,"ARG_OF_PERICENTER":273.2279,"MEAN_ANOMALY":235.7842,"EPHEMERIS_TYPE":0,"CLASSIFICATION_TYPE":"U","NORAD_CAT_ID":49164,"ELEMENT_SET_NO":999,"REV_AT_EPOCH":21731,"BSTAR":-0.0012624,"MEAN_MOTION_DOT":-0.00015121,"MEAN_MOTION_DDOT":0},{"OBJECT_NAME":"STARLINK-3052","OBJECT_ID":"2021-082AM","EPOCH":"2025-08-18T22:07:58.741824","MEAN_MOTION":14.98328697,"ECCENTRICITY":0.0002979,"INCLINATION":69.9993,"RA_OF_ASC_NODE":85.7209,"ARG_OF_PERICENTER":269.6307,"MEAN_ANOMALY":90.451,"EPHEMERIS_TYPE":0,"CLASSIFICATION_TYPE":"U","NORAD_CAT_ID":49165,"ELEMENT_SET_NO":999,"REV_AT_EPOCH":21680,"BSTAR":1.2209e-5,"MEAN_MOTION_DOT":5.3e-7,"MEAN_MOTION_DDOT":0},{"OBJECT_NAME":"STARLINK-3089","OBJECT_ID":"2021-082AN","EPOCH":"2025-08-18T22:01:01.238880","MEAN_MOTION":14.97523821,"ECCENTRICITY":0.0002977,"INCLINATION":69.9995,"RA_OF_ASC_NODE":65.8646,"ARG_OF_PERICENTER":269.6273,"MEAN_ANOMALY":90.4544,"EPHEMERIS_TYPE":0,"CLASSIFICATION_TYPE":"U","NORAD_CAT_ID":49166,"ELEMENT_SET_NO":999,"REV_AT_EPOCH":21729,"BSTAR":6.023e-5,"MEAN_MOTION_DOT":6.12e-6,"MEAN_MOTION_DDOT":0},{"OBJECT_NAME":"STARLINK-3054","OBJECT_ID":"2021-082AP","EPOCH":"2025-08-18T21:55:57.532512","MEAN_MOTION":14.98333034,"ECCENTRICITY":0.0002853,"INCLINATION":69.9994,"RA_OF_ASC_NODE":85.7209,"ARG_OF_PERICENTER":269.4308,"MEAN_ANOMALY":90.6524,"EPHEMERIS_TYPE":0,"CLASSIFICATION_TYPE":"U","NORAD_CAT_ID":49167,"ELEMENT_SET_NO":999,"REV_AT_EPOCH":21680,"BSTAR":-1.6689e-5,"MEAN_MOTION_DOT":-2.92e-6,"MEAN_MOTION_DDOT":0},{"OBJECT_NAME":"STARLINK-3046","OBJECT_ID":"2021-082AR","EPOCH":"2025-08-19T13:14:54.409632","MEAN_MOTION":14.9832804,"ECCENTRICITY":0.0002675,"INCLINATION":69.9995,"RA_OF_ASC_NODE":64.1271,"ARG_OF_PERICENTER":275.1702,"MEAN_ANOMALY":84.9152,"EPHEMERIS_TYPE":0,"CLASSIFICATION_TYPE":"U","NORAD_CAT_ID":49169,"ELEMENT_SET_NO":999,"REV_AT_EPOCH":21740,"BSTAR":-0.00015863,"MEAN_MOTION_DOT":-1.985e-5,"MEAN_MOTION_DDOT":0},{"OBJECT_NAME":"STARLINK-3107","OBJECT_ID":"2021-082AT","EPOCH":"2025-08-19T00:26:40.704288","MEAN_MOTION":15.00983954,"ECCENTRICITY":0.0004198,"INCLINATION":69.9989,"RA_OF_ASC_NODE":84.9124,"ARG_OF_PERICENTER":200.3781,"MEAN_ANOMALY":159.7212,"EPHEMERIS_TYPE":0,"CLASSIFICATION_TYPE":"U","NORAD_CAT_ID":49171,"ELEMENT_SET_NO":999,"REV_AT_EPOCH":21679,"BSTAR":0.00093869,"MEAN_MOTION_DOT":0.00011927,"MEAN_MOTION_DDOT":0},{"OBJECT_NAME":"STARLINK-3045","OBJECT_ID":"2021-082AV","EPOCH":"2025-08-18T20:55:34.555008","MEAN_MOTION":14.98297858,"ECCENTRICITY":0.0001697,"INCLINATION":70,"RA_OF_ASC_NODE":65.8249,"ARG_OF_PERICENTER":260.7946,"MEAN_ANOMALY":99.3021,"EPHEMERIS_TYPE":0,"CLASSIFICATION_TYPE":"U","NORAD_CAT_ID":49173,"ELEMENT_SET_NO":999,"REV_AT_EPOCH":21609,"BSTAR":-0.00019818,"MEAN_MOTION_DOT":-2.454e-5,"MEAN_MOTION_DDOT":0},{"OBJECT_NAME":"STARLINK-3047","OBJECT_ID":"2021-082AW","EPOCH":"2025-08-19T06:00:02.999808","MEAN_MOTION":15.59954337,"ECCENTRICITY":0.0005167,"INCLINATION":69.984,"RA_OF_ASC_NODE":11.4986,"ARG_OF_PERICENTER":209.0486,"MEAN_ANOMALY":57.2818,"EPHEMERIS_TYPE":0,"CLASSIFICATION_TYPE":"U","NORAD_CAT_ID":49174,"ELEMENT_SET_NO":999,"REV_AT_EPOCH":21863,"BSTAR":0.0029339,"MEAN_MOTION_DOT":0.00244744,"MEAN_MOTION_DDOT":0},{"OBJECT_NAME":"STARLINK-3087","OBJECT_ID":"2021-082AX","EPOCH":"2025-08-19T13:09:49.661280","MEAN_MOTION":14.97523613,"ECCENTRICITY":0.0002849,"INCLINATION":69.9994,"RA_OF_ASC_NODE":64.407,"ARG_OF_PERICENTER":274.2071,"MEAN_ANOMALY":85.8762,"EPHEMERIS_TYPE":0,"CLASSIFICATION_TYPE":"U","NORAD_CAT_ID":49175,"ELEMENT_SET_NO":999,"REV_AT_EPOCH":21618,"BSTAR":2.8094e-5,"MEAN_MOTION_DOT":2.36e-6,"MEAN_MOTION_DDOT":0}]
